[{"OBJECT_NAME":"KONDOR-FKA NO. 2","OBJECT_ID":"2024-223A","EPOCH":"2026-03-09T11:47:52.628640","MEAN_MOTION":15.1977694,"ECCENTRICITY":0.00018388,"INCLINATION":97.4353,"RA_OF_ASC_NODE":273.3867,"ARG_OF_PERICENTER":85.6363,"MEAN_ANOMALY":274.5082,"EPHEMERIS_TYPE":0,"CLASSIFICATION_TYPE":"U","NORAD_CAT_ID":62138,"ELEMENT_SET_NO":999,"REV_AT_EPOCH":7056,"BSTAR":0.00026619271,"MEAN_MOTION_DOT":5.629e-5,"MEAN_MOTION_DDOT":0},{"OBJECT_NAME":"CZ-4 DEB","OBJECT_ID":"1990-081Z","EPOCH":"2026-03-09T18:07:39.944352","MEAN_MOTION":15.17725505,"ECCENTRICITY":0.00034514,"INCLINATION":98.0344,"RA_OF_ASC_NODE":132.584,"ARG_OF_PERICENTER":292.5158,"MEAN_ANOMALY":67.5708,"EPHEMERIS_TYPE":0,"CLASSIFICATION_TYPE":"U","NORAD_CAT_ID":20861,"ELEMENT_SET_NO":999,"REV_AT_EPOCH":85925,"BSTAR":0.0035527985,"MEAN_MOTION_DOT":0.00072268,"MEAN_MOTION_DDOT":0}]
